COSMOS 2433 (720)       
1 32275C 07052A   22005.99979167  .00000000  00000-0  00000-0 0    57
2 32275  66.0814  10.0594 0005079 262.6586 289.0331  2.13104067    12
COSMOS 2432 (719)       
1 32276C 07052B   22005.99979167  .00000000  00000-0  00000-0 0    58
2 32276  66.0947  10.1576 0011790 318.4259 181.9895  2.13103331    13
COSMOS 2434 (721)       
1 32393C 07065A   22005.99979167  .00000000  00000-0  00000-0 0    52
2 32393  64.4132 246.9780 0004489  70.8430   9.8268  2.13103111    12
COSMOS 2436 (723)       
1 32395C 07065C   22005.99979167  .00000000  00000-0  00000-0 0    54
2 32395  64.4220 247.0335 0016533   5.4514 211.1930  2.13102945    18
COSMOS 2456 (730)       
1 36111C 09070A   22005.99979167 -.00000001  00000-0  00000-0 0    54
2 36111  64.3157 126.6334 0002453 313.7534 294.7702  2.13098996    14
COSMOS 2457 (733)       
1 36112C 09070B   22005.99979167 -.00000001  00000-0  00000-0 0    55
2 36112  64.2987 126.5132 0006215 160.4546 214.0704  2.13101213    14
COSMOS 2461 (735)       
1 36401C 10007B   22005.99979167  .00000000  00000-0  00000-0 0    56
2 36401  65.9700   8.9203 0020308 359.1140  50.1652  2.13103572    15
COSMOS 2460 (732)       
1 36402C 10007C   22005.99979167  .00000000  00000-0  00000-0 0    57
2 36402  65.9569   8.8737 0002478 281.4959  74.6538  2.13106262    16
COSMOS 2464 (736)       
1 37139C 10041C   21346.99979167 -.00000005  00000-0  00000-0 0  3464
2 37139  64.0180 246.9668 0029530  10.9316 237.2531  2.13100675    13
COSMOS 2476 (744)       
1 37867C 11064A   22005.99979167 -.00000001  00000-0  00000-0 0    59
2 37867  64.6074 127.9262 0020869 232.9602 279.6439  2.13101683    14
COSMOS 2477 (745)       
1 37868C 11064B   22005.99979167 -.00000001  00000-0  00000-0 0    50
2 37868  64.6152 127.9890 0018176 233.4404  97.3840  2.13101543    19
COSMOS 2475 (743)       
1 37869C 11064C   22005.99979167 -.00000001  00000-0  00000-0 0    51
2 37869  64.6225 127.9957 0021820 253.6119  35.1002  2.13101717    15
COSMOS 2485 (747)       
1 39155C 13019A   22005.99979167 -.00000001  00000-0  00000-0 0    53
2 39155  64.7723 128.3192 0021397 228.8710 328.1785  2.13101602    11
COSMOS 2492 (754)       
1 39620C 14012A   22005.99979167  .00000000  00000-0  00000-0 0    52
2 39620  65.8442   8.5777 0014961 316.7372 274.9168  2.13103092    14
COSMOS 2500 (755)       
1 40001C 14032A   22005.99979167  .00000000  00000-0  00000-0 0    59
2 40001  65.7841   8.4510 0007330 223.7732 226.9685  2.13102277    19
COSMOS 2501 (702)       
1 40315C 14075A   22005.99979167  .00000000  00000-0  00000-0 0    54
2 40315  63.7219 246.8648 0016226 207.4672  50.5002  2.13101304    14
COSMOS 2514 (751)       
1 41330C 16008A   22005.99979167  .00000000  00000-0  00000-0 0    50
2 41330  65.5851   8.1832 0011249 225.2544  49.0200  2.13102641    12
COSMOS 2522 (752)       
1 42939C 17055A   22005.99979167  .00000000  00000-0  00000-0 0    59
2 42939  64.1811 247.4426 0005497 250.2284 143.0030  2.13102003    11
COSMOS 2527 (756)       
1 43508C 18053A   22005.99979167 -.00000001  00000-0  00000-0 0    53
2 43508  64.9357 128.2854 0007894 220.5290 204.8153  2.13102464    11
COSMOS 2529 (757)       
1 43687C 18086A   22005.99979167  .00000000  00000-0  00000-0 0    55
2 43687  64.3958 247.7151 0008100 278.1412  70.6139  2.13102003    15
COSMOS 2534 (758)       
1 44299C 19030A   22005.99979167  .00000000  00000-0  00000-0 0    55
2 44299  64.4672 247.5848 0011421 297.6354 185.7976  2.13101964    13
COSMOS 2544 (759)       
1 44850C 19088A   22005.99979167 -.00000001  00000-0  00000-0 0    53
2 44850  64.9207 128.1411 0011391 254.7651 214.1664  2.13102255    10
COSMOS 2545 (760)       
1 45358C 20018A   21347.99979167 -.00000001  00000-0  00000-0 0  3479
2 45358  64.9189   9.7226 0011553 251.4919  62.3759  2.13102827    15
COSMOS 2547 (705)       
1 46805C 20075A   22005.99979167  .00000000  00000-0  00000-0 0    51
2 46805  64.6899 246.9613 0005531 251.0855 279.4906  2.13102977    18
